[{"COMMENT":"GENERATED VIA SPACETRACK.ORG API","ORIGINATOR":"18 SPCS","NORAD_CAT_ID":"43476","OBJECT_NAME":"GRACE-FO 1","OBJECT_TYPE":"PAYLOAD","CLASSIFICATION_TYPE":"U","INTLDES":"18047A","EPOCH":"2023-09-22 13:35:09","EPOCH_MICROSECONDS":"547872","MEAN_MOTION":"15.26843562","ECCENTRICITY":"0.0015048","INCLINATION":"88.9899","RA_OF_ASC_NODE":"335.9485","ARG_OF_PERICENTER":"33.4278","MEAN_ANOMALY":"326.7918","EPHEMERIS_TYPE":"0","ELEMENT_SET_NO":"999","REV_AT_EPOCH":"29685","BSTAR":"0.00015137","MEAN_MOTION_DOT":"0.00004031","MEAN_MOTION_DDOT":"0","FILE":"4013584","TLE_LINE0":"0 GRACE-FO 1","TLE_LINE1":"1 43476U 18047A   23265.56608273  .00004031  00000-0  15137-3 0  9997","TLE_LINE2":"2 43476  88.9899 335.9485 0015048  33.4278 326.7918 15.26843562296857","OBJECT_ID":"2018-047A","OBJECT_NUMBER":"43476","SEMIMAJOR_AXIS":"6863.392","PERIOD":"94.312","APOGEE":"495.585","PERIGEE":"474.929","DECAYED":"0"},{"COMMENT":"GENERATED VIA SPACETRACK.ORG API","ORIGINATOR":"18 SPCS","NORAD_CAT_ID":"43476","OBJECT_NAME":"GRACE-FO 1","OBJECT_TYPE":"PAYLOAD","CLASSIFICATION_TYPE":"U","INTLDES":"18047A","EPOCH":"2023-09-22 21:27:02","EPOCH_MICROSECONDS":"951424","MEAN_MOTION":"15.26846721","ECCENTRICITY":"0.0014999","INCLINATION":"88.9898","RA_OF_ASC_NODE":"335.904","ARG_OF_PERICENTER":"32.3034","MEAN_ANOMALY":"327.9131","EPHEMERIS_TYPE":"0","ELEMENT_SET_NO":"999","REV_AT_EPOCH":"29690","BSTAR":"0.00016413","MEAN_MOTION_DOT":"0.00004368","MEAN_MOTION_DDOT":"0","FILE":"4013859","TLE_LINE0":"0 GRACE-FO 1","TLE_LINE1":"1 43476U 18047A   23265.89378416  .00004368  00000-0  16413-3 0  9997","TLE_LINE2":"2 43476  88.9898 335.9040 0014999  32.3034 327.9131 15.26846721296901","OBJECT_ID":"2018-047A","OBJECT_NUMBER":"43476","SEMIMAJOR_AXIS":"6863.383","PERIOD":"94.312","APOGEE":"495.542","PERIGEE":"474.953","DECAYED":"0"},{"COMMENT":"GENERATED VIA SPACETRACK.ORG API","ORIGINATOR":"18 SPCS","NORAD_CAT_ID":"43476","OBJECT_NAME":"GRACE-FO 1","OBJECT_TYPE":"PAYLOAD","CLASSIFICATION_TYPE":"U","INTLDES":"18047A","EPOCH":"2023-09-23 11:36:26","EPOCH_MICROSECONDS":"968608","MEAN_MOTION":"15.26850868","ECCENTRICITY":"0.0014899","INCLINATION":"88.9899","RA_OF_ASC_NODE":"335.8238","ARG_OF_PERICENTER":"30.2811","MEAN_ANOMALY":"329.9296","EPHEMERIS_TYPE":"0","ELEMENT_SET_NO":"999","REV_AT_EPOCH":"29699","BSTAR":"0.00015877","MEAN_MOTION_DOT":"0.00004227","MEAN_MOTION_DDOT":"0","FILE":"4014315","TLE_LINE0":"0 GRACE-FO 1","TLE_LINE1":"1 43476U 18047A   23266.48364547  .00004227  00000-0  15877-3 0  9990","TLE_LINE2":"2 43476  88.9899 335.8238 0014899  30.2811 329.9296 15.26850868296999","OBJECT_ID":"2018-047A","OBJECT_NUMBER":"43476","SEMIMAJOR_AXIS":"6863.370","PERIOD":"94.312","APOGEE":"495.461","PERIGEE":"475.010","DECAYED":"0"},{"COMMENT":"GENERATED VIA SPACETRACK.ORG API","ORIGINATOR":"18 SPCS","NORAD_CAT_ID":"43476","OBJECT_NAME":"GRACE-FO 1","OBJECT_TYPE":"PAYLOAD","CLASSIFICATION_TYPE":"U","INTLDES":"18047A","EPOCH":"2023-09-24 12:46:29","EPOCH_MICROSECONDS":"213184","MEAN_MOTION":"15.26860383","ECCENTRICITY":"0.0014722","INCLINATION":"88.99","RA_OF_ASC_NODE":"335.6815","ARG_OF_PERICENTER":"26.5557","MEAN_ANOMALY":"333.6443","EPHEMERIS_TYPE":"0","ELEMENT_SET_NO":"999","REV_AT_EPOCH":"29715","BSTAR":"0.00017307","MEAN_MOTION_DOT":"0.00004606","MEAN_MOTION_DDOT":"0","FILE":"4015358","TLE_LINE0":"0 GRACE-FO 1","TLE_LINE1":"1 43476U 18047A   23267.53228256  .00004606  00000-0  17307-3 0  9994","TLE_LINE2":"2 43476  88.9900 335.6815 0014722  26.5557 333.6443 15.26860383297159","OBJECT_ID":"2018-047A","OBJECT_NUMBER":"43476","SEMIMAJOR_AXIS":"6863.342","PERIOD":"94.311","APOGEE":"495.311","PERIGEE":"475.103","DECAYED":"0"},{"COMMENT":"GENERATED VIA SPACETRACK.ORG API","ORIGINATOR":"18 SPCS","NORAD_CAT_ID":"43476","OBJECT_NAME":"GRACE-FO 1","OBJECT_TYPE":"PAYLOAD","CLASSIFICATION_TYPE":"U","INTLDES":"18047A","EPOCH":"2023-09-24 17:29:37","EPOCH_MICROSECONDS":"75776","MEAN_MOTION":"15.26861933","ECCENTRICITY":"0.001469","INCLINATION":"88.99","RA_OF_ASC_NODE":"335.6549","ARG_OF_PERICENTER":"25.852","MEAN_ANOMALY":"334.3459","EPHEMERIS_TYPE":"0","ELEMENT_SET_NO":"999","REV_AT_EPOCH":"29718","BSTAR":"0.00016911","MEAN_MOTION_DOT":"0.00004502","MEAN_MOTION_DDOT":"0","FILE":"4015434","TLE_LINE0":"0 GRACE-FO 1","TLE_LINE1":"1 43476U 18047A   23267.72890134  .00004502  00000-0  16911-3 0  9990","TLE_LINE2":"2 43476  88.9900 335.6549 0014690  25.8520 334.3459 15.26861933297189","OBJECT_ID":"2018-047A","OBJECT_NUMBER":"43476","SEMIMAJOR_AXIS":"6863.337","PERIOD":"94.311","APOGEE":"495.284","PERIGEE":"475.120","DECAYED":"0"},{"COMMENT":"GENERATED VIA SPACETRACK.ORG API","ORIGINATOR":"18 SPCS","NORAD_CAT_ID":"43476","OBJECT_NAME":"GRACE-FO 1","OBJECT_TYPE":"PAYLOAD","CLASSIFICATION_TYPE":"U","INTLDES":"18047A","EPOCH":"2023-09-24 22:12:44","EPOCH_MICROSECONDS":"915040","MEAN_MOTION":"15.26863564","ECCENTRICITY":"0.0014656","INCLINATION":"88.99","RA_OF_ASC_NODE":"335.6282","ARG_OF_PERICENTER":"25.1702","MEAN_ANOMALY":"335.0258","EPHEMERIS_TYPE":"0","ELEMENT_SET_NO":"999","REV_AT_EPOCH":"29721","BSTAR":"0.00016915","MEAN_MOTION_DOT":"0.00004503","MEAN_MOTION_DDOT":"0","FILE":"4015673","TLE_LINE0":"0 GRACE-FO 1","TLE_LINE1":"1 43476U 18047A   23267.92551985  .00004503  00000-0  16915-3 0  9995","TLE_LINE2":"2 43476  88.9900 335.6282 0014656  25.1702 335.0258 15.26863564297211","OBJECT_ID":"2018-047A","OBJECT_NUMBER":"43476","SEMIMAJOR_AXIS":"6863.332","PERIOD":"94.311","APOGEE":"495.256","PERIGEE":"475.138","DECAYED":"0"},{"COMMENT":"GENERATED VIA SPACETRACK.ORG API","ORIGINATOR":"18 SPCS","NORAD_CAT_ID":"43476","OBJECT_NAME":"GRACE-FO 1","OBJECT_TYPE":"PAYLOAD","CLASSIFICATION_TYPE":"U","INTLDES":"18047A","EPOCH":"2023-09-25 12:22:08","EPOCH_MICROSECONDS":"240160","MEAN_MOTION":"15.26870804","ECCENTRICITY":"0.0014522","INCLINATION":"88.99","RA_OF_ASC_NODE":"335.548","ARG_OF_PERICENTER":"23.134","MEAN_ANOMALY":"337.0559","EPHEMERIS_TYPE":"0","ELEMENT_SET_NO":"999","REV_AT_EPOCH":"29730","BSTAR":"0.00018898","MEAN_MOTION_DOT":"0.00005028","MEAN_MOTION_DDOT":"0","FILE":"4016340","TLE_LINE0":"0 GRACE-FO 1","TLE_LINE1":"1 43476U 18047A   23268.51537315  .00005028  00000-0  18898-3 0  9997","TLE_LINE2":"2 43476  88.9900 335.5480 0014522  23.1340 337.0559 15.26870804297309","OBJECT_ID":"2018-047A","OBJECT_NUMBER":"43476","SEMIMAJOR_AXIS":"6863.311","PERIOD":"94.311","APOGEE":"495.142","PERIGEE":"475.209","DECAYED":"0"},{"COMMENT":"GENERATED VIA SPACETRACK.ORG API","ORIGINATOR":"18 SPCS","NORAD_CAT_ID":"43476","OBJECT_NAME":"GRACE-FO 1","OBJECT_TYPE":"PAYLOAD","CLASSIFICATION_TYPE":"U","INTLDES":"18047A","EPOCH":"2023-09-25 18:39:38","EPOCH_MICROSECONDS":"540160","MEAN_MOTION":"15.26873797","ECCENTRICITY":"0.0014464","INCLINATION":"88.9901","RA_OF_ASC_NODE":"335.5124","ARG_OF_PERICENTER":"22.2089","MEAN_ANOMALY":"337.9783","EPHEMERIS_TYPE":"0","ELEMENT_SET_NO":"999","REV_AT_EPOCH":"29734","BSTAR":"0.00019356","MEAN_MOTION_DOT":"0.00005149","MEAN_MOTION_DDOT":"0","FILE":"4016384","TLE_LINE0":"0 GRACE-FO 1","TLE_LINE1":"1 43476U 18047A   23268.77752940  .00005149  00000-0  19356-3 0  9992","TLE_LINE2":"2 43476  88.9901 335.5124 0014464  22.2089 337.9783 15.26873797297346","OBJECT_ID":"2018-047A","OBJECT_NUMBER":"43476","SEMIMAJOR_AXIS":"6863.302","PERIOD":"94.310","APOGEE":"495.094","PERIGEE":"475.239","DECAYED":"0"},{"COMMENT":"GENERATED VIA SPACETRACK.ORG API","ORIGINATOR":"18 SPCS","NORAD_CAT_ID":"43476","OBJECT_NAME":"GRACE-FO 1","OBJECT_TYPE":"PAYLOAD","CLASSIFICATION_TYPE":"U","INTLDES":"18047A","EPOCH":"2023-09-25 21:48:23","EPOCH_MICROSECONDS":"681952","MEAN_MOTION":"15.26874712","ECCENTRICITY":"0.0014439","INCLINATION":"88.9901","RA_OF_ASC_NODE":"335.4946","ARG_OF_PERICENTER":"21.7612","MEAN_ANOMALY":"338.4247","EPHEMERIS_TYPE":"0","ELEMENT_SET_NO":"999","REV_AT_EPOCH":"29736","BSTAR":"0.00018515","MEAN_MOTION_DOT":"0.00004927","MEAN_MOTION_DDOT":"0","FILE":"4016730","TLE_LINE0":"0 GRACE-FO 1","TLE_LINE1":"1 43476U 18047A   23268.90860743  .00004927  00000-0  18515-3 0  9997","TLE_LINE2":"2 43476  88.9901 335.4946 0014439  21.7612 338.4247 15.26874712297366","OBJECT_ID":"2018-047A","OBJECT_NUMBER":"43476","SEMIMAJOR_AXIS":"6863.299","PERIOD":"94.310","APOGEE":"495.074","PERIGEE":"475.254","DECAYED":"0"},{"COMMENT":"GENERATED VIA SPACETRACK.ORG API","ORIGINATOR":"18 SPCS","NORAD_CAT_ID":"43476","OBJECT_NAME":"GRACE-FO 1","OBJECT_TYPE":"PAYLOAD","CLASSIFICATION_TYPE":"U","INTLDES":"18047A","EPOCH":"2023-09-26 11:57:46","EPOCH_MICROSECONDS":"677024","MEAN_MOTION":"15.26881129","ECCENTRICITY":"0.0014334","INCLINATION":"88.9901","RA_OF_ASC_NODE":"335.4146","ARG_OF_PERICENTER":"19.6439","MEAN_ANOMALY":"340.536","EPHEMERIS_TYPE":"0","ELEMENT_SET_NO":"999","REV_AT_EPOCH":"29745","BSTAR":"0.00018963","MEAN_MOTION_DOT":"0.00005046","MEAN_MOTION_DDOT":"0","FILE":"4017272","TLE_LINE0":"0 GRACE-FO 1","TLE_LINE1":"1 43476U 18047A   23269.49845691  .00005046  00000-0  18963-3 0  9997","TLE_LINE2":"2 43476  88.9901 335.4146 0014334  19.6439 340.5360 15.26881129297455","OBJECT_ID":"2018-047A","OBJECT_NUMBER":"43476","SEMIMAJOR_AXIS":"6863.280","PERIOD":"94.310","APOGEE":"494.982","PERIGEE":"475.307","DECAYED":"0"}]